[{"OBJECT_NAME":"ATLAS CENTAUR 2","OBJECT_ID":"1963-047A","EPOCH":"2026-04-24T05:07:14.795616","MEAN_MOTION":14.12283894,"ECCENTRICITY":0.0546613,"INCLINATION":30.3527,"RA_OF_ASC_NODE":301.1952,"ARG_OF_PERICENTER":121.5645,"MEAN_ANOMALY":243.9503,"EPHEMERIS_TYPE":0,"CLASSIFICATION_TYPE":"U","NORAD_CAT_ID":694,"ELEMENT_SET_NO":999,"REV_AT_EPOCH":13806,"BSTAR":0.00033050957,"MEAN_MOTION_DOT":2.788e-5,"MEAN_MOTION_DDOT":0},{"OBJECT_NAME":"THOR AGENA D R/B","OBJECT_ID":"1964-002A","EPOCH":"2026-04-24T00:20:22.414848","MEAN_MOTION":14.3404206,"ECCENTRICITY":0.00337972,"INCLINATION":99.119,"RA_OF_ASC_NODE":129.818,"ARG_OF_PERICENTER":125.6015,"MEAN_ANOMALY":234.8325,"EPHEMERIS_TYPE":0,"CLASSIFICATION_TYPE":"U","NORAD_CAT_ID":733,"ELEMENT_SET_NO":999,"REV_AT_EPOCH":24479,"BSTAR":6.2896828e-5,"MEAN_MOTION_DOT":1.28e-6,"MEAN_MOTION_DDOT":0},{"OBJECT_NAME":"SL-3 R/B","OBJECT_ID":"1964-053B","EPOCH":"2026-04-24T04:48:09.224064","MEAN_MOTION":14.61398104,"ECCENTRICITY":0.00811084,"INCLINATION":65.0771,"RA_OF_ASC_NODE":197.8041,"ARG_OF_PERICENTER":277.9469,"MEAN_ANOMALY":81.2431,"EPHEMERIS_TYPE":0,"CLASSIFICATION_TYPE":"U","NORAD_CAT_ID":877,"ELEMENT_SET_NO":999,"REV_AT_EPOCH":27344,"BSTAR":4.4342925e-5,"MEAN_MOTION_DOT":1.04e-6,"MEAN_MOTION_DDOT":0},{"OBJECT_NAME":"SL-8 R/B","OBJECT_ID":"1967-045B","EPOCH":"2026-04-23T16:39:48.083328","MEAN_MOTION":14.45653123,"ECCENTRICITY":0.0065173,"INCLINATION":74.0101,"RA_OF_ASC_NODE":264.0329,"ARG_OF_PERICENTER":260.7092,"MEAN_ANOMALY":98.6692,"EPHEMERIS_TYPE":0,"CLASSIFICATION_TYPE":"U","NORAD_CAT_ID":2802,"ELEMENT_SET_NO":999,"REV_AT_EPOCH":9552,"BSTAR":6.1165156e-5,"MEAN_MOTION_DOT":1.93e-6,"MEAN_MOTION_DDOT":0},{"OBJECT_NAME":"SL-8 R/B","OBJECT_ID":"1968-040B","EPOCH":"2026-04-24T07:00:37.185120","MEAN_MOTION":15.03547802,"ECCENTRICITY":0.00239975,"INCLINATION":74.031,"RA_OF_ASC_NODE":220.4858,"ARG_OF_PERICENTER":25.7728,"MEAN_ANOMALY":334.465,"EPHEMERIS_TYPE":0,"CLASSIFICATION_TYPE":"U","NORAD_CAT_ID":3230,"ELEMENT_SET_NO":999,"REV_AT_EPOCH":9686,"BSTAR":0.00016891821,"MEAN_MOTION_DOT":2.277e-5,"MEAN_MOTION_DDOT":0},{"OBJECT_NAME":"OAO 2","OBJECT_ID":"1968-110A","EPOCH":"2026-04-24T02:34:48.859680","MEAN_MOTION":14.4733049,"ECCENTRICITY":0.00059393,"INCLINATION":34.9948,"RA_OF_ASC_NODE":11.6356,"ARG_OF_PERICENTER":207.9016,"MEAN_ANOMALY":152.1356,"EPHEMERIS_TYPE":0,"CLASSIFICATION_TYPE":"U","NORAD_CAT_ID":3597,"ELEMENT_SET_NO":999,"REV_AT_EPOCH":2568,"BSTAR":4.6945672e-5,"MEAN_MOTION_DOT":1.55e-6,"MEAN_MOTION_DDOT":0},{"OBJECT_NAME":"ISIS 1","OBJECT_ID":"1969-009A","EPOCH":"2026-04-24T02:51:07.204896","MEAN_MOTION":11.30423926,"ECCENTRICITY":0.17070924,"INCLINATION":88.445,"RA_OF_ASC_NODE":150.3413,"ARG_OF_PERICENTER":357.4972,"MEAN_ANOMALY":1.8265,"EPHEMERIS_TYPE":0,"CLASSIFICATION_TYPE":"U","NORAD_CAT_ID":3669,"ELEMENT_SET_NO":999,"REV_AT_EPOCH":35366,"BSTAR":4.1492618e-5,"MEAN_MOTION_DOT":6.6e-7,"MEAN_MOTION_DDOT":0},{"OBJECT_NAME":"SERT 2","OBJECT_ID":"1970-009A","EPOCH":"2026-04-24T07:09:51.359040","MEAN_MOTION":13.58735257,"ECCENTRICITY":0.00057003,"INCLINATION":99.2815,"RA_OF_ASC_NODE":54.9115,"ARG_OF_PERICENTER":54.5934,"MEAN_ANOMALY":99.5821,"EPHEMERIS_TYPE":0,"CLASSIFICATION_TYPE":"U","NORAD_CAT_ID":4327,"ELEMENT_SET_NO":999,"REV_AT_EPOCH":78608,"BSTAR":7.1406505e-5,"MEAN_MOTION_DOT":1.1e-7,"MEAN_MOTION_DDOT":0},{"OBJECT_NAME":"SL-3 R/B","OBJECT_ID":"1971-028B","EPOCH":"2026-04-24T05:36:31.038048","MEAN_MOTION":15.65020603,"ECCENTRICITY":0.00164956,"INCLINATION":81.2364,"RA_OF_ASC_NODE":355.6139,"ARG_OF_PERICENTER":116.1042,"MEAN_ANOMALY":244.1913,"EPHEMERIS_TYPE":0,"CLASSIFICATION_TYPE":"U","NORAD_CAT_ID":5118,"ELEMENT_SET_NO":999,"REV_AT_EPOCH":99578,"BSTAR":0.00036523043,"MEAN_MOTION_DOT":0.00036218,"MEAN_MOTION_DDOT":0},{"OBJECT_NAME":"ASTEX 1","OBJECT_ID":"1971-089A","EPOCH":"2026-04-24T04:56:48.772320","MEAN_MOTION":14.50811088,"ECCENTRICITY":0.00133431,"INCLINATION":92.705,"RA_OF_ASC_NODE":166.4606,"ARG_OF_PERICENTER":294.1695,"MEAN_ANOMALY":65.8115,"EPHEMERIS_TYPE":0,"CLASSIFICATION_TYPE":"U","NORAD_CAT_ID":5560,"ELEMENT_SET_NO":999,"REV_AT_EPOCH":86890,"BSTAR":7.8307198e-5,"MEAN_MOTION_DOT":3.07e-6,"MEAN_MOTION_DDOT":0},{"OBJECT_NAME":"SL-8 R/B","OBJECT_ID":"1971-119B","EPOCH":"2026-04-23T22:31:01.740576","MEAN_MOTION":14.38618175,"ECCENTRICITY":0.05454611,"INCLINATION":73.8848,"RA_OF_ASC_NODE":91.0842,"ARG_OF_PERICENTER":48.1513,"MEAN_ANOMALY":316.4883,"EPHEMERIS_TYPE":0,"CLASSIFICATION_TYPE":"U","NORAD_CAT_ID":5730,"ELEMENT_SET_NO":999,"REV_AT_EPOCH":66199,"BSTAR":0.00042379853,"MEAN_MOTION_DOT":8.149e-5,"MEAN_MOTION_DDOT":0},{"OBJECT_NAME":"OAO 3 (COPERNICUS)","OBJECT_ID":"1972-065A","EPOCH":"2026-04-24T03:53:18.260160","MEAN_MOTION":14.60030013,"ECCENTRICITY":0.00066701,"INCLINATION":35.0067,"RA_OF_ASC_NODE":38.23,"ARG_OF_PERICENTER":178.7834,"MEAN_ANOMALY":335.641,"EPHEMERIS_TYPE":0,"CLASSIFICATION_TYPE":"U","NORAD_CAT_ID":6153,"ELEMENT_SET_NO":999,"REV_AT_EPOCH":85284,"BSTAR":5.4644328e-5,"MEAN_MOTION_DOT":2.45e-6,"MEAN_MOTION_DDOT":0},{"OBJECT_NAME":"ATLAS CENTAUR R/B","OBJECT_ID":"1972-065B","EPOCH":"2026-04-24T03:55:44.976864","MEAN_MOTION":14.7780459,"ECCENTRICITY":0.00330537,"INCLINATION":35.0025,"RA_OF_ASC_NODE":39.2279,"ARG_OF_PERICENTER":32.0064,"MEAN_ANOMALY":328.2637,"EPHEMERIS_TYPE":0,"CLASSIFICATION_TYPE":"U","NORAD_CAT_ID":6155,"ELEMENT_SET_NO":999,"REV_AT_EPOCH":84799,"BSTAR":0.00013689146,"MEAN_MOTION_DOT":9.83e-6,"MEAN_MOTION_DDOT":0},{"OBJECT_NAME":"SL-8 R/B","OBJECT_ID":"1975-112B","EPOCH":"2026-04-24T04:52:27.712992","MEAN_MOTION":14.38224771,"ECCENTRICITY":0.00153747,"INCLINATION":74.0595,"RA_OF_ASC_NODE":295.1869,"ARG_OF_PERICENTER":11.568,"MEAN_ANOMALY":348.5824,"EPHEMERIS_TYPE":0,"CLASSIFICATION_TYPE":"U","NORAD_CAT_ID":8459,"ELEMENT_SET_NO":999,"REV_AT_EPOCH":63841,"BSTAR":3.7396251e-5,"MEAN_MOTION_DOT":8.8e-7,"MEAN_MOTION_DDOT":0},{"OBJECT_NAME":"SL-3 R/B","OBJECT_ID":"1977-057B","EPOCH":"2026-04-24T05:11:58.506432","MEAN_MOTION":15.46691897,"ECCENTRICITY":0.00083541,"INCLINATION":97.5825,"RA_OF_ASC_NODE":288.2001,"ARG_OF_PERICENTER":116.4909,"MEAN_ANOMALY":243.7198,"EPHEMERIS_TYPE":0,"CLASSIFICATION_TYPE":"U","NORAD_CAT_ID":10114,"ELEMENT_SET_NO":999,"REV_AT_EPOCH":67536,"BSTAR":0.00020719357,"MEAN_MOTION_DOT":0.00010267,"MEAN_MOTION_DDOT":0},{"OBJECT_NAME":"SEASAT 1","OBJECT_ID":"1978-064A","EPOCH":"2026-04-24T06:54:00.549504","MEAN_MOTION":14.46197998,"ECCENTRICITY":0.00028036,"INCLINATION":108.0082,"RA_OF_ASC_NODE":221.1697,"ARG_OF_PERICENTER":261.367,"MEAN_ANOMALY":98.7158,"EPHEMERIS_TYPE":0,"CLASSIFICATION_TYPE":"U","NORAD_CAT_ID":10967,"ELEMENT_SET_NO":999,"REV_AT_EPOCH":51310,"BSTAR":0.00010213028,"MEAN_MOTION_DOT":2.28e-6,"MEAN_MOTION_DDOT":0},{"OBJECT_NAME":"SL-14 R/B","OBJECT_ID":"1979-011B","EPOCH":"2026-04-24T06:05:58.760448","MEAN_MOTION":14.91964695,"ECCENTRICITY":0.00143658,"INCLINATION":82.5251,"RA_OF_ASC_NODE":53.3268,"ARG_OF_PERICENTER":265.06,"MEAN_ANOMALY":94.898,"EPHEMERIS_TYPE":0,"CLASSIFICATION_TYPE":"U","NORAD_CAT_ID":11267,"ELEMENT_SET_NO":999,"REV_AT_EPOCH":53557,"BSTAR":4.3814084e-5,"MEAN_MOTION_DOT":4.7e-6,"MEAN_MOTION_DDOT":0}]
