ATLAS CENTAUR 2         
1 00694U 63047A   26114.21336569  .00002788  00000+0  33051-3 0  9997
2 00694  30.3527 301.1952 0546613 121.5645 243.9503 14.12283894138067
THOR AGENA D R/B        
1 00733U 64002A   26114.01414832  .00000128  00000+0  62897-4 0  9998
2 00733  99.1190 129.8180 0033797 125.6015 234.8325 14.34042060244799
SL-3 R/B                
1 00877U 64053B   26114.20010676  .00000104  00000+0  44343-4 0  9992
2 00877  65.0771 197.8041 0081108 277.9469  81.2431 14.61398104273448
SL-8 R/B                
1 02802U 67045B   26113.69430652  .00000193  00000+0  61165-4 0  9997
2 02802  74.0101 264.0329 0065173 260.7092  98.6692 14.45653123 95526
SL-8 R/B                
1 03230U 68040B   26114.29209705  .00002277  00000+0  16892-3 0  9990
2 03230  74.0310 220.4858 0023997  25.7728 334.4650 15.03547802 96864
OAO 2                   
1 03597U 68110A   26114.10750995  .00000155  00000+0  46946-4 0  9993
2 03597  34.9948  11.6356 0005939 207.9016 152.1356 14.47330490 25685
ISIS 1                  
1 03669U 69009A   26114.11883339  .00000066  00000+0  41493-4 0  9994
2 03669  88.4450 150.3413 1707092 357.4972   1.8265 11.30423926353661
SERT 2                  
1 04327U 70009A   26114.29851110  .00000011  00000+0  71407-4 0  9997
2 04327  99.2815  54.9115 0005700  54.5934  99.5821 13.58735257786088
SL-3 R/B                
1 05118U 71028B   26114.23369257  .00036218  00000+0  36523-3 0  9995
2 05118  81.2364 355.6139 0016495 116.1042 244.1913 15.65020603995783
ASTEX 1                 
1 05560U 71089A   26114.20612005  .00000307  00000+0  78307-4 0  9999
2 05560  92.7050 166.4606 0013343 294.1695  65.8115 14.50811088868903
SL-8 R/B                
1 05730U 71119B   26113.93821459  .00008149  00000+0  42380-3 0  9999
2 05730  73.8848  91.0842 0545461  48.1513 316.4883 14.38618175661994
OAO 3 (COPERNICUS)      
1 06153U 72065A   26114.16201690  .00000245  00000+0  54644-4 0  9991
2 06153  35.0067  38.2300 0006670 178.7834 335.6410 14.60030013852848
ATLAS CENTAUR R/B       
1 06155U 72065B   26114.16371501  .00000983  00000+0  13689-3 0  9994
2 06155  35.0025  39.2279 0033053  32.0064 328.2637 14.77804590847998
SL-8 R/B                
1 08459U 75112B   26114.20309853  .00000088  00000+0  37396-4 0  9993
2 08459  74.0595 295.1869 0015374  11.5680 348.5824 14.38224771638414
SL-3 R/B                
1 10114U 77057B   26114.21664938  .00010267  00000+0  20719-3 0  9993
2 10114  97.5825 288.2001 0008354 116.4909 243.7198 15.46691897675363
SEASAT 1                
1 10967U 78064A   26114.28750636  .00000228  00000+0  10213-3 0  9990
2 10967 108.0082 221.1697 0002803 261.3670  98.7158 14.46197998513106
SL-14 R/B               
1 11267U 79011B   26114.25415232  .00000470  00000+0  43814-4 0  9997
2 11267  82.5251  53.3268 0014365 265.0600  94.8980 14.91964695535574
